GLOBALSTAR M045         
1 25676U 99019A   24264.66059747 -.00000117  00000+0 -20416-3 0  9992
2 25676  52.0001 353.4696 0000820  91.8796  60.5746 12.27044788160303
GLOBALSTAR M019         
1 25677U 99019B   24264.58232824 -.00000120  00000+0 -31729-3 0  9996
2 25677  51.9860 105.0866 0001756 110.0122 266.9506 12.13864421152598
GLOBALSTAR M044         
1 25678U 99019C   24264.88342671 -.00000043  00000+0  56488-3 0  9994
2 25678  52.0001  21.9187 0005894 235.4808 277.3732 11.90238928139256
GLOBALSTAR M042         
1 25679U 99019D   24264.99864799 -.00000093  00000+0 -81677-5 0  9993
2 25679  51.9999  90.8709 0003769  98.0824  68.2638 12.22068192152411
GLOBALSTAR M025         
1 25770U 99031A   24264.87720917 -.00000082  00000+0 -44560-3 0  9995
2 25770  51.9822  63.1426 0002212  67.2203  84.9351 11.22554124451466
GLOBALSTAR M049         
1 25771U 99031B   24264.52337091 -.00000104  00000+0 -13304-2 0  9991
2 25771  51.9862  85.1743 0002360 291.8864  68.1681 11.12109345 87420
GLOBALSTAR M047         
1 25772U 99031C   24264.81061037 -.00000065  00000+0  11825-3 0  9990
2 25772  51.9813 107.2303 0016439 156.8766 203.2782 11.31923167440602
GLOBALSTAR M052         
1 25773U 99031D   24264.60465769 -.00000069  00000+0 -97260-4 0  9991
2 25773  51.9847 197.4595 0002982  74.4648  97.0625 11.15053742448435
